start=new Date('2022-08-26T00:00:00.000Z').valueOf();
sats=[{"GP_ID":"211007739","FILE":"3547674","INCLINATION":"53.2173","RA_OF_ASC_NODE":"288.4203","TLE_LINE1":"1 50183U 21125AD  22237.85204714 -.00000195  00000-0  58614-5 0  9990","REF_FRAME":"TEME","TLE_LINE2":"2 50183  53.2173 288.4203 0001376  66.6751 293.4386 15.08837676 41624","REV_AT_EPOCH":"4162","CENTER_NAME":"EARTH","TIME_SYSTEM":"UTC","COUNTRY_CODE":"US","OBJECT_TYPE":"PAYLOAD","ELEMENT_SET_NO":"999","SEMIMAJOR_AXIS":"6917.887","MEAN_MOTION":"15.08837676","ARG_OF_PERICENTER":"66.6751","EPOCH":"2022-08-25T20:26:56.872896","APOAPSIS":"540.704","ECCENTRICITY":"0.00013760","DECAY_DATE":null,"PERIAPSIS":"538.801","SITE":"AFWTR","LAUNCH_DATE":"2021-12-18","NORAD_CAT_ID":"50183","PERIOD":"95.438","MEAN_ELEMENT_THEORY":"SGP4","OBJECT_NAME":"STARLINK-3281","CLASSIFICATION_TYPE":"U","MEAN_ANOMALY":"293.4386","OBJECT_ID":"2021-125AD","EPHEMERIS_TYPE":"0","BSTAR":"0.00000586140000","MEAN_MOTION_DOT":"-0.00000195","RCS_SIZE":"LARGE","MEAN_MOTION_DDOT":"0.0000000000000"},{"MEAN_MOTION":"15.08819037","EPOCH":"2022-08-25T11:05:14.741952","ARG_OF_PERICENTER":"57.1107","SEMIMAJOR_AXIS":"6917.944","COUNTRY_CODE":"US","OBJECT_TYPE":"PAYLOAD","ELEMENT_SET_NO":"999","CENTER_NAME":"EARTH","TIME_SYSTEM":"UTC","TLE_LINE2":"2 50185  53.2165 290.1674 0001919  57.1107 303.0070 15.08819037 41520","REV_AT_EPOCH":"4152","TLE_LINE1":"1 50185U 21125AF  22237.46197618  .00002641  00000-0  18410-3 0  9998","INCLINATION":"53.2165","RA_OF_ASC_NODE":"290.1674","REF_FRAME":"TEME","FILE":"3547226","GP_ID":"210972486","RCS_SIZE":"LARGE","MEAN_MOTION_DDOT":"0.0000000000000","EPHEMERIS_TYPE":"0","MEAN_MOTION_DOT":"0.00002641","BSTAR":"0.00018410000000","OBJECT_ID":"2021-125AF","MEAN_ANOMALY":"303.0070","CLASSIFICATION_TYPE":"U","MEAN_ELEMENT_THEORY":"SGP4","OBJECT_NAME":"STARLINK-3279","NORAD_CAT_ID":"50185","PERIOD":"95.439","PERIAPSIS":"538.482","SITE":"AFWTR","LAUNCH_DATE":"2021-12-18","DECAY_DATE":null,"APOAPSIS":"541.137","ECCENTRICITY":"0.00019190"},{"MEAN_ELEMENT_THEORY":"SGP4","OBJECT_NAME":"STARLINK-3274","NORAD_CAT_ID":"50186","PERIOD":"95.439","PERIAPSIS":"538.719","SITE":"AFWTR","LAUNCH_DATE":"2021-12-18","DECAY_DATE":null,"APOAPSIS":"540.908","ECCENTRICITY":"0.00015820","RCS_SIZE":"LARGE","MEAN_MOTION_DDOT":"0.0000000000000","EPHEMERIS_TYPE":"0","BSTAR":"0.00009348600000","MEAN_MOTION_DOT":"0.00001199","OBJECT_ID":"2021-125AG","MEAN_ANOMALY":"295.8173","CLASSIFICATION_TYPE":"U","TLE_LINE2":"2 50186  53.2185 299.7949 0001582  64.2983 295.8173 15.08817794 41384","REV_AT_EPOCH":"4138","TLE_LINE1":"1 50186U 21125AG  22237.54201248  .00001199  00000-0  93486-4 0  9997","RA_OF_ASC_NODE":"299.7949","INCLINATION":"53.2185","REF_FRAME":"TEME","FILE":"3547674","GP_ID":"211008230","MEAN_MOTION":"15.08817794","EPOCH":"2022-08-25T13:00:29.878272","ARG_OF_PERICENTER":"64.2983","SEMIMAJOR_AXIS":"6917.948","OBJECT_TYPE":"PAYLOAD","COUNTRY_CODE":"US","ELEMENT_SET_NO":"999","CENTER_NAME":"EARTH","TIME_SYSTEM":"UTC"},{"OBJECT_TYPE":"PAYLOAD","COUNTRY_CODE":"US","ELEMENT_SET_NO":"999","CENTER_NAME":"EARTH","TIME_SYSTEM":"UTC","MEAN_MOTION":"15.08828705","EPOCH":"2022-08-25T20:01:46.588800","ARG_OF_PERICENTER":"45.6507","SEMIMAJOR_AXIS":"6917.915","RA_OF_ASC_NODE":"278.4796","INCLINATION":"53.2164","TLE_LINE1":"1 50187U 21125AH  22237.83456700 -.00000706  00000-0 -26279-4 0  9996","REF_FRAME":"TEME","GP_ID":"211007492","FILE":"3547674","TLE_LINE2":"2 50187  53.2164 278.4796 0002002  45.6507 314.4649 15.08828705 41693","REV_AT_EPOCH":"4169","MEAN_ANOMALY":"314.4649","OBJECT_ID":"2021-125AH","CLASSIFICATION_TYPE":"U","RCS_SIZE":"LARGE","MEAN_MOTION_DDOT":"0.0000000000000","EPHEMERIS_TYPE":"0","BSTAR":"-0.00002627900000","MEAN_MOTION_DOT":"-0.00000706","SITE":"AFWTR","PERIAPSIS":"538.395","LAUNCH_DATE":"2021-12-18","ECCENTRICITY":"0.00020020","APOAPSIS":"541.165","DECAY_DATE":null,"MEAN_ELEMENT_THEORY":"SGP4","OBJECT_NAME":"STARLINK-3272","NORAD_CAT_ID":"50187","PERIOD":"95.438"},{"SEMIMAJOR_AXIS":"6917.856","EPOCH":"2022-08-25T20:07:03.794304","ARG_OF_PERICENTER":"46.5254","MEAN_MOTION":"15.08848021","TIME_SYSTEM":"UTC","CENTER_NAME":"EARTH","ELEMENT_SET_NO":"999","OBJECT_TYPE":"PAYLOAD","COUNTRY_CODE":"US","REV_AT_EPOCH":"4175","TLE_LINE2":"2 50188  53.2165 278.4577 0001980  46.5254 313.5902 15.08848021 41757","GP_ID":"211007239","FILE":"3547674","REF_FRAME":"TEME","RA_OF_ASC_NODE":"278.4577","INCLINATION":"53.2165","TLE_LINE1":"1 50188U 21125AJ  22237.83823836  .00000856  00000-0  71867-4 0  9992","BSTAR":"0.00007186700000","MEAN_MOTION_DOT":"0.00000856","EPHEMERIS_TYPE":"0","MEAN_MOTION_DDOT":"0.0000000000000","RCS_SIZE":"LARGE","CLASSIFICATION_TYPE":"U","MEAN_ANOMALY":"313.5902","OBJECT_ID":"2021-125AJ","PERIOD":"95.437","NORAD_CAT_ID":"50188","OBJECT_NAME":"STARLINK-3275","MEAN_ELEMENT_THEORY":"SGP4","APOAPSIS":"541.091","ECCENTRICITY":"0.00019800","DECAY_DATE":null,"LAUNCH_DATE":"2021-12-18","SITE":"AFWTR","PERIAPSIS":"538.351"},{"OBJECT_ID":"2021-125AK","MEAN_ANOMALY":"303.8489","CLASSIFICATION_TYPE":"U","MEAN_MOTION_DDOT":"0.0000000000000","RCS_SIZE":"LARGE","BSTAR":"0.00010900000000","MEAN_MOTION_DOT":"0.00001447","EPHEMERIS_TYPE":"0","LAUNCH_DATE":"2021-12-18","PERIAPSIS":"538.487","SITE":"AFWTR","DECAY_DATE":null,"ECCENTRICITY":"0.00018140","APOAPSIS":"540.996","OBJECT_NAME":"STARLINK-3276","MEAN_ELEMENT_THEORY":"SGP4","PERIOD":"95.437","NORAD_CAT_ID":"50189","ELEMENT_SET_NO":"999","OBJECT_TYPE":"PAYLOAD","COUNTRY_CODE":"US","TIME_SYSTEM":"UTC","CENTER_NAME":"EARTH","EPOCH":"2022-08-25T20:11:02.419872","ARG_OF_PERICENTER":"56.2675","MEAN_MOTION":"15.08841276","SEMIMAJOR_AXIS":"6917.876","REF_FRAME":"TEME","TLE_LINE1":"1 50189U 21125AK  22237.84100023  .00001447  00000-0  10900-3 0  9997","INCLINATION":"53.2173","RA_OF_ASC_NODE":"288.4585","FILE":"3547607","GP_ID":"210983616","REV_AT_EPOCH":"4109","TLE_LINE2":"2 50189  53.2173 288.4585 0001814  56.2675 303.8489 15.08841276 41092"},{"CLASSIFICATION_TYPE":"U","OBJECT_ID":"2021-125AL","MEAN_ANOMALY":"308.4409","MEAN_MOTION_DOT":"0.00001225","BSTAR":"0.00009508200000","EPHEMERIS_TYPE":"0","MEAN_MOTION_DDOT":"0.0000000000000","RCS_SIZE":"LARGE","DECAY_DATE":null,"ECCENTRICITY":"0.00018920","APOAPSIS":"541.049","LAUNCH_DATE":"2021-12-18","PERIAPSIS":"538.431","SITE":"AFWTR","PERIOD":"95.437","NORAD_CAT_ID":"50190","OBJECT_NAME":"STARLINK-3268","MEAN_ELEMENT_THEORY":"SGP4","TIME_SYSTEM":"UTC","CENTER_NAME":"EARTH","ELEMENT_SET_NO":"999","COUNTRY_CODE":"US","OBJECT_TYPE":"PAYLOAD","SEMIMAJOR_AXIS":"6917.875","EPOCH":"2022-08-25T19:45:51.693408","ARG_OF_PERICENTER":"51.6753","MEAN_MOTION":"15.08841750","FILE":"3547607","GP_ID":"210983740","REF_FRAME":"TEME","TLE_LINE1":"1 50190U 21125AL  22237.82351497  .00001225  00000-0  95082-4 0  9999","RA_OF_ASC_NODE":"278.5347","INCLINATION":"53.2179","REV_AT_EPOCH":"4122","TLE_LINE2":"2 50190  53.2179 278.5347 0001892  51.6753 308.4409 15.08841750 41223"},{"REF_FRAME":"TEME","INCLINATION":"53.2157","RA_OF_ASC_NODE":"300.2770","TLE_LINE1":"1 50191U 21125AM  22237.43528668  .00001226  00000-0  95098-4 0  9991","GP_ID":"210973988","FILE":"3547226","REV_AT_EPOCH":"4136","TLE_LINE2":"2 50191  53.2157 300.2770 0001651  48.4012 311.7122 15.08844379 41362","ELEMENT_SET_NO":"999","COUNTRY_CODE":"US","OBJECT_TYPE":"PAYLOAD","TIME_SYSTEM":"UTC","CENTER_NAME":"EARTH","ARG_OF_PERICENTER":"48.4012","EPOCH":"2022-08-25T10:26:48.769152","MEAN_MOTION":"15.08844379","SEMIMAJOR_AXIS":"6917.867","LAUNCH_DATE":"2021-12-18","PERIAPSIS":"538.590","SITE":"AFWTR","APOAPSIS":"540.874","ECCENTRICITY":"0.00016510","DECAY_DATE":null,"OBJECT_NAME":"STARLINK-3273","MEAN_ELEMENT_THEORY":"SGP4","PERIOD":"95.437","NORAD_CAT_ID":"50191","MEAN_ANOMALY":"311.7122","OBJECT_ID":"2021-125AM","CLASSIFICATION_TYPE":"U","MEAN_MOTION_DDOT":"0.0000000000000","RCS_SIZE":"LARGE","BSTAR":"0.00009509800000","MEAN_MOTION_DOT":"0.00001226","EPHEMERIS_TYPE":"0"},{"CLASSIFICATION_TYPE":"U","OBJECT_ID":"2021-125AN","MEAN_ANOMALY":"311.5432","MEAN_MOTION_DOT":"0.00001087","BSTAR":"0.00008642800000","EPHEMERIS_TYPE":"0","MEAN_MOTION_DDOT":"0.0000000000000","RCS_SIZE":"LARGE","DECAY_DATE":null,"APOAPSIS":"541.047","ECCENTRICITY":"0.00018590","LAUNCH_DATE":"2021-12-18","PERIAPSIS":"538.475","SITE":"AFWTR","PERIOD":"95.438","NORAD_CAT_ID":"50192","OBJECT_NAME":"STARLINK-3259","MEAN_ELEMENT_THEORY":"SGP4","TIME_SYSTEM":"UTC","CENTER_NAME":"EARTH","ELEMENT_SET_NO":"999","OBJECT_TYPE":"PAYLOAD","COUNTRY_CODE":"US","SEMIMAJOR_AXIS":"6917.896","ARG_OF_PERICENTER":"48.5720","EPOCH":"2022-08-25T10:08:15.823104","MEAN_MOTION":"15.08834850","FILE":"3547226","GP_ID":"210972736","REF_FRAME":"TEME","TLE_LINE1":"1 50192U 21125AN  22237.42240536  .00001087  00000-0  86428-4 0  9998","RA_OF_ASC_NODE":"280.3366","INCLINATION":"53.2172","REV_AT_EPOCH":"4164","TLE_LINE2":"2 50192  53.2172 280.3366 0001859  48.5720 311.5432 15.08834850 41642"},{"FILE":"3547674","GP_ID":"211008486","TLE_LINE1":"1 50193U 21125AP  22237.83088725 -.00000842  00000-0 -34822-4 0  9995","RA_OF_ASC_NODE":"278.4979","INCLINATION":"53.2177","REF_FRAME":"TEME","TLE_LINE2":"2 50193  53.2177 278.4979 0002020  44.7515 315.3640 15.08836610 41758","REV_AT_EPOCH":"4175","CENTER_NAME":"EARTH","TIME_SYSTEM":"UTC","COUNTRY_CODE":"US","OBJECT_TYPE":"PAYLOAD","ELEMENT_SET_NO":"999","SEMIMAJOR_AXIS":"6917.891","MEAN_MOTION":"15.08836610","ARG_OF_PERICENTER":"44.7515","EPOCH":"2022-08-25T19:56:28.658400","DECAY_DATE":null,"APOAPSIS":"541.153","ECCENTRICITY":"0.00020200","SITE":"AFWTR","PERIAPSIS":"538.358","LAUNCH_DATE":"2021-12-18","NORAD_CAT_ID":"50193","PERIOD":"95.438","MEAN_ELEMENT_THEORY":"SGP4","OBJECT_NAME":"STARLINK-3261","CLASSIFICATION_TYPE":"U","OBJECT_ID":"2021-125AP","MEAN_ANOMALY":"315.3640","EPHEMERIS_TYPE":"0","BSTAR":"-0.00003482200000","MEAN_MOTION_DOT":"-0.00000842","RCS_SIZE":"LARGE","MEAN_MOTION_DDOT":"0.0000000000000"}];
